ASTROCAST-0404          
1 55112U 23001DH  26068.80836714  .00008870  00000+0  34436-3 0  9994
2 55112  97.5646 161.5422 0006847   1.1317 358.9936 15.26309833129366
STARLINK-32618          
1 62045U 24216P   26068.82131346  .00023302  00000+0  85364-3 0  9990
2 62045  43.0003 255.7603 0001748 269.1618  90.9034 15.27578686 73897
